[{"OBJECT_NAME":"CHUANGXIN 1 (CX-1)","OBJECT_ID":"2003-049B","EPOCH":"2026-03-09T23:37:11.328096","MEAN_MOTION":14.48529163,"ECCENTRICITY":0.00134088,"INCLINATION":98.5179,"RA_OF_ASC_NODE":327.2835,"ARG_OF_PERICENTER":121.0909,"MEAN_ANOMALY":239.1602,"EPHEMERIS_TYPE":0,"CLASSIFICATION_TYPE":"U","NORAD_CAT_ID":28058,"ELEMENT_SET_NO":999,"REV_AT_EPOCH":18191,"BSTAR":9.8543692e-5,"MEAN_MOTION_DOT":3.25e-6,"MEAN_MOTION_DDOT":0},{"OBJECT_NAME":"METEOR 2-8 DEB","OBJECT_ID":"1982-025AA","EPOCH":"2026-03-08T13:13:56.811072","MEAN_MOTION":14.53089915,"ECCENTRICITY":0.00106696,"INCLINATION":82.5141,"RA_OF_ASC_NODE":153.2327,"ARG_OF_PERICENTER":318.9146,"MEAN_ANOMALY":41.1248,"EPHEMERIS_TYPE":0,"CLASSIFICATION_TYPE":"U","NORAD_CAT_ID":36340,"ELEMENT_SET_NO":999,"REV_AT_EPOCH":64899,"BSTAR":0.0035628166,"MEAN_MOTION_DOT":0.00014774,"MEAN_MOTION_DDOT":0}]
